[{"OBJECT_NAME":"STARLINK-36971","OBJECT_ID":"2026-049Z","EPOCH":"2026-04-07T05:22:42.615840","MEAN_MOTION":15.75259829,"ECCENTRICITY":0.00010377,"INCLINATION":97.2849,"RA_OF_ASC_NODE":117.9328,"ARG_OF_PERICENTER":84.1459,"MEAN_ANOMALY":275.9925,"EPHEMERIS_TYPE":0,"CLASSIFICATION_TYPE":"U","NORAD_CAT_ID":68165,"ELEMENT_SET_NO":999,"REV_AT_EPOCH":391,"BSTAR":0.0011180639,"MEAN_MOTION_DOT":0.00170521,"MEAN_MOTION_DDOT":0},{"OBJECT_NAME":"STARLINK-36273","OBJECT_ID":"2026-049AA","EPOCH":"2026-04-07T07:13:30.320832","MEAN_MOTION":15.75241608,"ECCENTRICITY":0.00012842,"INCLINATION":97.2854,"RA_OF_ASC_NODE":117.9802,"ARG_OF_PERICENTER":88.3932,"MEAN_ANOMALY":271.7481,"EPHEMERIS_TYPE":0,"CLASSIFICATION_TYPE":"U","NORAD_CAT_ID":68166,"ELEMENT_SET_NO":999,"REV_AT_EPOCH":392,"BSTAR":0.0010686875,"MEAN_MOTION_DOT":0.00162707,"MEAN_MOTION_DDOT":0},{"OBJECT_NAME":"STARLINK-36969","OBJECT_ID":"2026-050A","EPOCH":"2026-04-07T06:20:20.761152","MEAN_MOTION":15.80935659,"ECCENTRICITY":7.394e-5,"INCLINATION":53.1559,"RA_OF_ASC_NODE":138.6377,"ARG_OF_PERICENTER":89.6307,"MEAN_ANOMALY":270.4801,"EPHEMERIS_TYPE":0,"CLASSIFICATION_TYPE":"U","NORAD_CAT_ID":68167,"ELEMENT_SET_NO":999,"REV_AT_EPOCH":499,"BSTAR":0.0012388965,"MEAN_MOTION_DOT":0.00251813,"MEAN_MOTION_DDOT":0},{"OBJECT_NAME":"STARLINK-36984","OBJECT_ID":"2026-050B","EPOCH":"2026-04-07T06:00:02.999808","MEAN_MOTION":15.71271005,"ECCENTRICITY":0.00012456,"INCLINATION":53.1591,"RA_OF_ASC_NODE":138.7778,"ARG_OF_PERICENTER":92.3243,"MEAN_ANOMALY":151.9548,"EPHEMERIS_TYPE":0,"CLASSIFICATION_TYPE":"U","NORAD_CAT_ID":68168,"ELEMENT_SET_NO":999,"REV_AT_EPOCH":503,"BSTAR":-0.01726497,"MEAN_MOTION_DOT":-0.0197392,"MEAN_MOTION_DDOT":0},{"OBJECT_NAME":"STARLINK-37077","OBJECT_ID":"2026-050C","EPOCH":"2026-04-07T06:18:11.218176","MEAN_MOTION":15.80948567,"ECCENTRICITY":0.00016128,"INCLINATION":53.1561,"RA_OF_ASC_NODE":138.6276,"ARG_OF_PERICENTER":79.3089,"MEAN_ANOMALY":280.8115,"EPHEMERIS_TYPE":0,"CLASSIFICATION_TYPE":"U","NORAD_CAT_ID":68169,"ELEMENT_SET_NO":999,"REV_AT_EPOCH":499,"BSTAR":0.00099196664,"MEAN_MOTION_DOT":0.00200391,"MEAN_MOTION_DDOT":0},{"OBJECT_NAME":"STARLINK-37003","OBJECT_ID":"2026-050D","EPOCH":"2026-04-07T04:46:04.065024","MEAN_MOTION":15.80959874,"ECCENTRICITY":0.00013437,"INCLINATION":53.1556,"RA_OF_ASC_NODE":138.9388,"ARG_OF_PERICENTER":78.8808,"MEAN_ANOMALY":281.2365,"EPHEMERIS_TYPE":0,"CLASSIFICATION_TYPE":"U","NORAD_CAT_ID":68170,"ELEMENT_SET_NO":999,"REV_AT_EPOCH":498,"BSTAR":0.0010356071,"MEAN_MOTION_DOT":0.00209571,"MEAN_MOTION_DDOT":0},{"OBJECT_NAME":"STARLINK-37034","OBJECT_ID":"2026-050E","EPOCH":"2026-04-07T04:44:59.087904","MEAN_MOTION":15.80940669,"ECCENTRICITY":0.00016429,"INCLINATION":53.1562,"RA_OF_ASC_NODE":138.9339,"ARG_OF_PERICENTER":97.0936,"MEAN_ANOMALY":263.0273,"EPHEMERIS_TYPE":0,"CLASSIFICATION_TYPE":"U","NORAD_CAT_ID":68171,"ELEMENT_SET_NO":999,"REV_AT_EPOCH":498,"BSTAR":0.00064160413,"MEAN_MOTION_DOT":0.00128232,"MEAN_MOTION_DDOT":0},{"OBJECT_NAME":"STARLINK-37031","OBJECT_ID":"2026-050F","EPOCH":"2026-04-07T06:14:56.687712","MEAN_MOTION":15.80960704,"ECCENTRICITY":0.00012789,"INCLINATION":53.1558,"RA_OF_ASC_NODE":138.6115,"ARG_OF_PERICENTER":102.5113,"MEAN_ANOMALY":257.6053,"EPHEMERIS_TYPE":0,"CLASSIFICATION_TYPE":"U","NORAD_CAT_ID":68172,"ELEMENT_SET_NO":999,"REV_AT_EPOCH":499,"BSTAR":0.0012458776,"MEAN_MOTION_DOT":0.00253577,"MEAN_MOTION_DDOT":0},{"OBJECT_NAME":"STARLINK-37076","OBJECT_ID":"2026-050G","EPOCH":"2026-04-07T04:42:49.037760","MEAN_MOTION":15.80925701,"ECCENTRICITY":0.00016785,"INCLINATION":53.1559,"RA_OF_ASC_NODE":138.9242,"ARG_OF_PERICENTER":73.0351,"MEAN_ANOMALY":287.0856,"EPHEMERIS_TYPE":0,"CLASSIFICATION_TYPE":"U","NORAD_CAT_ID":68173,"ELEMENT_SET_NO":999,"REV_AT_EPOCH":498,"BSTAR":0.00056644533,"MEAN_MOTION_DOT":0.00112848,"MEAN_MOTION_DDOT":0},{"OBJECT_NAME":"STARLINK-37078","OBJECT_ID":"2026-050H","EPOCH":"2026-04-07T04:41:44.987712","MEAN_MOTION":15.80925599,"ECCENTRICITY":0.00017674,"INCLINATION":53.1557,"RA_OF_ASC_NODE":138.9191,"ARG_OF_PERICENTER":111.0155,"MEAN_ANOMALY":249.1057,"EPHEMERIS_TYPE":0,"CLASSIFICATION_TYPE":"U","NORAD_CAT_ID":68174,"ELEMENT_SET_NO":999,"REV_AT_EPOCH":498,"BSTAR":0.00082215218,"MEAN_MOTION_DOT":0.00165109,"MEAN_MOTION_DDOT":0},{"OBJECT_NAME":"STARLINK-36886","OBJECT_ID":"2026-050J","EPOCH":"2026-04-07T04:40:40.088352","MEAN_MOTION":15.8095249,"ECCENTRICITY":0.00012194,"INCLINATION":53.1563,"RA_OF_ASC_NODE":138.9139,"ARG_OF_PERICENTER":98.9777,"MEAN_ANOMALY":261.1384,"EPHEMERIS_TYPE":0,"CLASSIFICATION_TYPE":"U","NORAD_CAT_ID":68175,"ELEMENT_SET_NO":999,"REV_AT_EPOCH":498,"BSTAR":0.00093797899,"MEAN_MOTION_DOT":0.00189232,"MEAN_MOTION_DDOT":0},{"OBJECT_NAME":"STARLINK-36905","OBJECT_ID":"2026-050K","EPOCH":"2026-04-07T03:08:33.051840","MEAN_MOTION":15.80931639,"ECCENTRICITY":0.00019427,"INCLINATION":53.1559,"RA_OF_ASC_NODE":139.226,"ARG_OF_PERICENTER":100.8919,"MEAN_ANOMALY":259.2323,"EPHEMERIS_TYPE":0,"CLASSIFICATION_TYPE":"U","NORAD_CAT_ID":68176,"ELEMENT_SET_NO":999,"REV_AT_EPOCH":497,"BSTAR":0.0018617315,"MEAN_MOTION_DOT":0.00384624,"MEAN_MOTION_DDOT":0},{"OBJECT_NAME":"STARLINK-36668","OBJECT_ID":"2026-050L","EPOCH":"2026-04-07T06:00:02.999808","MEAN_MOTION":15.69782075,"ECCENTRICITY":9.349e-5,"INCLINATION":53.1593,"RA_OF_ASC_NODE":138.7253,"ARG_OF_PERICENTER":75.5912,"MEAN_ANOMALY":193.8677,"EPHEMERIS_TYPE":0,"CLASSIFICATION_TYPE":"U","NORAD_CAT_ID":68177,"ELEMENT_SET_NO":999,"REV_AT_EPOCH":503,"BSTAR":-0.018335808,"MEAN_MOTION_DOT":-0.01968913,"MEAN_MOTION_DDOT":0},{"OBJECT_NAME":"STARLINK-36677","OBJECT_ID":"2026-050M","EPOCH":"2026-04-07T04:37:25.436064","MEAN_MOTION":15.8097769,"ECCENTRICITY":0.00013575,"INCLINATION":53.1563,"RA_OF_ASC_NODE":138.8985,"ARG_OF_PERICENTER":92.6288,"MEAN_ANOMALY":267.489,"EPHEMERIS_TYPE":0,"CLASSIFICATION_TYPE":"U","NORAD_CAT_ID":68178,"ELEMENT_SET_NO":999,"REV_AT_EPOCH":498,"BSTAR":0.0013114214,"MEAN_MOTION_DOT":0.00267602,"MEAN_MOTION_DDOT":0},{"OBJECT_NAME":"STARLINK-37052","OBJECT_ID":"2026-050N","EPOCH":"2026-04-07T04:36:20.859840","MEAN_MOTION":15.80941148,"ECCENTRICITY":0.00014507,"INCLINATION":53.1558,"RA_OF_ASC_NODE":138.8935,"ARG_OF_PERICENTER":115.5096,"MEAN_ANOMALY":244.6076,"EPHEMERIS_TYPE":0,"CLASSIFICATION_TYPE":"U","NORAD_CAT_ID":68179,"ELEMENT_SET_NO":999,"REV_AT_EPOCH":498,"BSTAR":0.0010204424,"MEAN_MOTION_DOT":0.00206233,"MEAN_MOTION_DDOT":0},{"OBJECT_NAME":"STARLINK-37035","OBJECT_ID":"2026-050P","EPOCH":"2026-04-07T04:35:16.124640","MEAN_MOTION":15.809278,"ECCENTRICITY":0.00015204,"INCLINATION":53.156,"RA_OF_ASC_NODE":138.8884,"ARG_OF_PERICENTER":105.0983,"MEAN_ANOMALY":255.0208,"EPHEMERIS_TYPE":0,"CLASSIFICATION_TYPE":"U","NORAD_CAT_ID":68180,"ELEMENT_SET_NO":999,"REV_AT_EPOCH":498,"BSTAR":0.00085058322,"MEAN_MOTION_DOT":0.00170976,"MEAN_MOTION_DDOT":0}]
