STARLINK-36971          
1 68165U 26049Z   26097.22410435  .00170521  00000+0  11181-2 0  9991
2 68165  97.2849 117.9328 0001037  84.1459 275.9925 15.75259829  3915
STARLINK-36273          
1 68166U 26049AA  26097.30104538  .00162707  00000+0  10687-2 0  9992
2 68166  97.2854 117.9802 0001284  88.3932 271.7481 15.75241608  3923
STARLINK-36969          
1 68167U 26050A   26097.26412918  .00251813  00000+0  12389-2 0  9992
2 68167  53.1559 138.6377 0000739  89.6307 270.4801 15.80935659  4990
STARLINK-36984          
1 68168U 26050B   26097.25003472 -.01973920  00000+0 -17265-1 0  9993
2 68168  53.1591 138.7778 0001245  92.3243 151.9548 15.71271005  5031
STARLINK-37077          
1 68169U 26050C   26097.26262984  .00200391  00000+0  99197-3 0  9998
2 68169  53.1561 138.6276 0001612  79.3089 280.8115 15.80948567  4992
STARLINK-37003          
1 68170U 26050D   26097.19865816  .00209571  00000+0  10356-2 0  9993
2 68170  53.1556 138.9388 0001343  78.8808 281.2365 15.80959874  4983
STARLINK-37034          
1 68171U 26050E   26097.19790611  .00128232  00000+0  64160-3 0  9991
2 68171  53.1562 138.9339 0001642  97.0936 263.0273 15.80940669  4982
STARLINK-37031          
1 68172U 26050F   26097.26037833  .00253577  00000+0  12459-2 0  9994
2 68172  53.1558 138.6115 0001278 102.5113 257.6053 15.80960704  4999
STARLINK-37076          
1 68173U 26050G   26097.19640090  .00112848  00000+0  56645-3 0  9993
2 68173  53.1559 138.9242 0001678  73.0351 287.0856 15.80925701  4980
STARLINK-37078          
1 68174U 26050H   26097.19565958  .00165109  00000+0  82215-3 0  9993
2 68174  53.1557 138.9191 0001767 111.0155 249.1057 15.80925599  4983
STARLINK-36886          
1 68175U 26050J   26097.19490843  .00189232  00000+0  93798-3 0  9995
2 68175  53.1563 138.9139 0001219  98.9777 261.1384 15.80952490  4985
STARLINK-36905          
1 68176U 26050K   26097.13093810  .00384624  00000+0  18617-2 0  9991
2 68176  53.1559 139.2260 0001942 100.8919 259.2323 15.80931639  4976
STARLINK-36668          
1 68177U 26050L   26097.25003472 -.01968913  00000+0 -18336-1 0  9999
2 68177  53.1593 138.7253 0000934  75.5912 193.8677 15.69782075  5030
STARLINK-36677          
1 68178U 26050M   26097.19265551  .00267602  00000+0  13114-2 0  9995
2 68178  53.1563 138.8985 0001357  92.6288 267.4890 15.80977690  4987
STARLINK-37052          
1 68179U 26050N   26097.19190810  .00206233  00000+0  10204-2 0  9991
2 68179  53.1558 138.8935 0001450 115.5096 244.6076 15.80941148  4985
STARLINK-37035          
1 68180U 26050P   26097.19115885  .00170976  00000+0  85058-3 0  9996
2 68180  53.1560 138.8884 0001520 105.0983 255.0208 15.80927800  4982
